[{"OBJECT_NAME":"AURA","OBJECT_ID":"2004-026A","EPOCH":"2026-03-09T21:39:31.960800","MEAN_MOTION":14.61149986,"ECCENTRICITY":0.0001042,"INCLINATION":98.3311,"RA_OF_ASC_NODE":24.6066,"ARG_OF_PERICENTER":85.0806,"MEAN_ANOMALY":275.0513,"EPHEMERIS_TYPE":0,"CLASSIFICATION_TYPE":"U","NORAD_CAT_ID":28376,"ELEMENT_SET_NO":999,"REV_AT_EPOCH":15171,"BSTAR":0.00028939986,"MEAN_MOTION_DOT":1.376e-5,"MEAN_MOTION_DDOT":0},{"OBJECT_NAME":"NOAA 16 DEB","OBJECT_ID":"2000-055JJ","EPOCH":"2026-03-09T22:59:16.115424","MEAN_MOTION":14.56496088,"ECCENTRICITY":0.0026006,"INCLINATION":98.9303,"RA_OF_ASC_NODE":250.9854,"ARG_OF_PERICENTER":54.0793,"MEAN_ANOMALY":306.2811,"EPHEMERIS_TYPE":0,"CLASSIFICATION_TYPE":"U","NORAD_CAT_ID":41365,"ELEMENT_SET_NO":999,"REV_AT_EPOCH":52514,"BSTAR":0.0025750191,"MEAN_MOTION_DOT":0.00011469,"MEAN_MOTION_DDOT":0}]
